[{"OBJECT_NAME":"TROLL","OBJECT_ID":"2025-009BB","EPOCH":"2026-03-09T05:24:19.835712","MEAN_MOTION":15.28164315,"ECCENTRICITY":0.00018165,"INCLINATION":97.3932,"RA_OF_ASC_NODE":150.7169,"ARG_OF_PERICENTER":59.185,"MEAN_ANOMALY":300.9568,"EPHEMERIS_TYPE":0,"CLASSIFICATION_TYPE":"U","NORAD_CAT_ID":62658,"ELEMENT_SET_NO":999,"REV_AT_EPOCH":11817,"BSTAR":0.00048220305,"MEAN_MOTION_DOT":0.00013174,"MEAN_MOTION_DDOT":0},{"OBJECT_NAME":"STARLINK-35877","OBJECT_ID":"2025-294V","EPOCH":"2026-03-09T06:43:58.814112","MEAN_MOTION":15.27588364,"ECCENTRICITY":0.00018784,"INCLINATION":43.003,"RA_OF_ASC_NODE":40.6399,"ARG_OF_PERICENTER":255.1594,"MEAN_ANOMALY":104.905,"EPHEMERIS_TYPE":0,"CLASSIFICATION_TYPE":"U","NORAD_CAT_ID":67049,"ELEMENT_SET_NO":999,"REV_AT_EPOCH":1473,"BSTAR":0.00091411684,"MEAN_MOTION_DOT":0.00024984,"MEAN_MOTION_DDOT":0}]
